CCSDS_OMM_VERS,COMMENT,CREATION_DATE,ORIGINATOR,OBJECT_NAME,OBJECT_ID,CENTER_NAME,REF_FRAME,TIME_SYSTEM,MEAN_ELEMENT_THEORY,EPOCH,MEAN_MOTION,ECCENTRICITY,INCLINATION,RA_OF_ASC_NODE,ARG_OF_PERICENTER,MEAN_ANOMALY,EPHEMERIS_TYPE,CLASSIFICATION_TYPE,NORAD_CAT_ID,ELEMENT_SET_NO,REV_AT_EPOCH,BSTAR,MEAN_MOTION_DOT,MEAN_MOTION_DDOT,SEMIMAJOR_AXIS,PERIOD,APOAPSIS,PERIAPSIS,OBJECT_TYPE,RCS_SIZE,COUNTRY_CODE,LAUNCH_DATE,SITE,DECAY_DATE,FILE,GP_ID,TLE_LINE0,TLE_LINE1,TLE_LINE2
2,GENERATED VIA SPACE-TRACK.ORG API,2020-01-02T06:13:51,18 SPCS,LEASAT 5,1990-002B,EARTH,TEME,UTC,SGP4,2020-01-01T16:38:27.892896,0.99595324,0.0008314,11.7443,4.7298,352.223,202.3066,0,U,20410,999,9493,0.0,7.5e-07,0,42355.441,1445.851,36012.52,35942.091,PAYLOAD,LARGE,US,1990-01-09,AFETR,,2676929,145932965,0 LEASAT 5,1 20410U 90002B   20001.69337839 +.00000075 +00000-0 +00000-0 0  9991,2 20410 011.7443 004.7298 0008314 352.2230 202.3066 00.99595324094932
2,GENERATED VIA SPACE-TRACK.ORG API,2020-01-02T21:20:16,18 SPCS,LEASAT 5,1990-002B,EARTH,TEME,UTC,SGP4,2020-01-02T16:32:42.939168,0.99595771,0.0008342,11.7441,4.7232,352.484,199.1688,0,U,20410,999,9493,0.0,7e-07,0,42355.314,1445.844,36012.512,35941.846,PAYLOAD,LARGE,US,1990-01-09,AFETR,,2677274,145975321,0 LEASAT 5,1 20410U 90002B   20002.68938587  .00000070  00000-0  00000+0 0  9992,2 20410  11.7441   4.7232 0008342 352.4840 199.1688  0.99595771 94937
2,GENERATED VIA SPACE-TRACK.ORG API,2020-01-04T05:49:52,18 SPCS,LEASAT 5,1990-002B,EARTH,TEME,UTC,SGP4,2020-01-03T16:51:31.260096,0.99596214,0.0008362,11.7439,4.7165,352.7394,202.1517,0,U,20410,999,9495,0.0,6.2e-07,0,42355.188,1445.838,36012.471,35941.636,PAYLOAD,LARGE,US,1990-01-09,AFETR,,2678007,146055091,0 LEASAT 5,1 20410U 90002B   20003.70244514 +.00000062 +00000-0 +00000-0 0  9998,2 20410 011.7439 004.7165 0008362 352.7394 202.1517 00.99596214094959
2,GENERATED VIA SPACE-TRACK.ORG API,2020-01-04T22:20:17,18 SPCS,LEASAT 5,1990-002B,EARTH,TEME,UTC,SGP4,2020-01-04T16:58:02.336736,0.99596656,0.0008381,11.7436,4.7099,352.9889,202.0827,0,U,20410,999,9495,0.0,5.3e-07,0,42355.063,1445.831,36012.426,35941.43,PAYLOAD,LARGE,US,1990-01-09,AFETR,,2678414,146137235,0 LEASAT 5,1 20410U 90002B   20004.70697149  .00000053  00000-0  00000+0 0  9994,2 20410  11.7436   4.7099 0008381 352.9889 202.0827  0.99596656 94957
2,GENERATED VIA SPACE-TRACK.ORG API,2020-01-06T04:27:36,18 SPCS,LEASAT 5,1990-002B,EARTH,TEME,UTC,SGP4,2020-01-05T17:04:29.845056,0.99597091,0.000839,11.7434,4.7032,353.2153,202.0235,0,U,20410,999,9497,0.0,4.3e-07,0,42354.94,1445.825,36012.34,35941.269,PAYLOAD,LARGE,US,1990-01-09,AFETR,,2679057,146195801,0 LEASAT 5,1 20410U 90002B   20005.71145654 +.00000043 +00000-0 +00000-0 0  9995,2 20410 011.7434 004.7032 0008390 353.2153 202.0235 00.99597091094979
2,GENERATED VIA SPACE-TRACK.ORG API,2020-01-07T04:33:27,18 SPCS,LEASAT 5,1990-002B,EARTH,TEME,UTC,SGP4,2020-01-06T17:43:42.553344,0.99597535,0.0008402,11.7432,4.6963,353.4282,210.1356,0,U,20410,999,9498,0.0,3e-07,0,42354.814,1445.818,36012.265,35941.092,PAYLOAD,LARGE,US,1990-01-09,AFETR,,2679641,146262187,0 LEASAT 5,1 20410U 90002B   20006.73868696 +.00000030 +00000-0 +00000-0 0  9992,2 20410 011.7432 004.6963 0008402 353.4282 210.1356 00.99597535094986
2,GENERATED VIA SPACE-TRACK.ORG API,2020-01-07T06:30:16,18 SPCS,LEASAT 5,1990-002B,EARTH,TEME,UTC,SGP4,2020-01-07T03:31:05.731104,0.99597704,0.0008411,11.7431,4.6935,353.5395,356.2841,0,U,20410,999,9498,0.0,2.4e-07,0,42354.766,1445.816,36012.255,35941.006,PAYLOAD,LARGE,US,1990-01-09,AFETR,,2679693,146277492,0 LEASAT 5,1 20410U 90002B   20007.14659411  .00000024  00000-0  00000+0 0  9993,2 20410  11.7431   4.6935 0008411 353.5395 356.2841  0.99597704 94989
2,GENERATED VIA SPACE-TRACK.ORG API,2020-01-08T04:20:10,18 SPCS,LEASAT 5,1990-002B,EARTH,TEME,UTC,SGP4,2020-01-07T17:17:25.427616,0.99597942,0.0008409,11.743,4.6896,353.6092,201.972,0,U,20410,999,9499,0.0,1.6e-07,0,42354.698,1445.813,36012.179,35940.947,PAYLOAD,LARGE,US,1990-01-09,AFETR,,2680193,146312791,0 LEASAT 5,1 20410U 90002B   20007.72043319 +.00000016 +00000-0 +00000-0 0  9993,2 20410 011.7430 004.6896 0008409 353.6092 201.9720 00.99597942094993
2,GENERATED VIA SPACE-TRACK.ORG API,2020-01-09T05:08:46,18 SPCS,LEASAT 5,1990-002B,EARTH,TEME,UTC,SGP4,2020-01-08T17:23:57.897024,0.99598349,0.0008417,11.7428,4.6828,353.7633,202.0109,0,U,20410,999,9500,0.0,0.0,0,42354.583,1445.807,36012.098,35940.798,PAYLOAD,LARGE,US,1990-01-09,AFETR,,2680735,146383094,0 LEASAT 5,1 20410U 90002B   20008.72497566 -.00000000 +00000-0 +00000-0 0  9995,2 20410 011.7428 004.6828 0008417 353.7633 202.0109 00.99598349095004
2,GENERATED VIA SPACE-TRACK.ORG API,2020-01-09T06:20:16,18 SPCS,LEASAT 5,1990-002B,EARTH,TEME,UTC,SGP4,2020-01-09T03:44:01.495968,0.99598518,0.000842,11.7427,4.6799,353.8376,356.3339,0,U,20410,999,9500,0.0,-7e-08,0,42354.535,1445.804,36012.063,35940.738,PAYLOAD,LARGE,US,1990-01-09,AFETR,,2680772,146417664,0 LEASAT 5,1 20410U 90002B   20009.15557287 -.00000007  00000-0  00000+0 0  9996,2 20410  11.7427   4.6799 0008420 353.8376 356.3339  0.99598518 95005
2,GENERATED VIA SPACE-TRACK.ORG API,2020-01-10T04:00:00,18 SPCS,LEASAT 5,1990-002B,EARTH,TEME,UTC,SGP4,2020-01-09T05:27:09.534816,0.99598549,0.000842,11.7427,4.6794,353.8443,22.008,0,U,20410,999,9501,0.0,-9e-08,0,42354.526,1445.804,36012.054,35940.729,PAYLOAD,LARGE,US,1990-01-09,AFETR,,2681237,146471631,0 LEASAT 5,1 20410U 90002B   20009.22719369 -.00000009 +00000-0 +00000-0 0  9998,2 20410 011.7427 004.6794 0008420 353.8443 022.0080 00.99598549095010
2,GENERATED VIA SPACE-TRACK.ORG API,2020-01-11T04:11:21,18 SPCS,LEASAT 5,1990-002B,EARTH,TEME,UTC,SGP4,2020-01-10T17:36:45.133344,0.99599121,0.0008437,11.7424,4.6691,353.9814,202.1108,0,U,20410,999,9502,0.0,-3.6e-07,0,42354.364,1445.795,36011.963,35940.495,PAYLOAD,LARGE,US,1990-01-09,AFETR,,2681885,146563888,0 LEASAT 5,1 20410U 90002B   20010.73385571 -.00000036 +00000-0 +00000-0 0  9990,2 20410 011.7424 004.6691 0008437 353.9814 202.1108 00.99599121095024
2,GENERATED VIA SPACE-TRACK.ORG API,2020-01-11T14:30:15,18 SPCS,LEASAT 5,1990-002B,EARTH,TEME,UTC,SGP4,2020-01-11T05:02:01.148928,0.99599279,0.0008435,11.7423,4.6658,354.0148,12.7124,0,U,20410,999,9502,0.0,-4.6e-07,0,42354.319,1445.793,36011.91,35940.458,PAYLOAD,LARGE,US,1990-01-09,AFETR,,2682063,146582555,0 LEASAT 5,1 20410U 90002B   20011.20973552 -.00000046  00000-0  00000+0 0  9995,2 20410  11.7423   4.6658 0008435 354.0148  12.7124  0.99599279 95023
2,GENERATED VIA SPACE-TRACK.ORG API,2020-01-12T02:44:24,18 SPCS,LEASAT 5,1990-002B,EARTH,TEME,UTC,SGP4,2020-01-11T16:00:03.731904,0.99599438,0.0008443,11.7422,4.6627,354.0132,176.5711,0,U,20410,999,9503,0.0,-5.5e-07,0,42354.274,1445.791,36011.899,35940.38,PAYLOAD,LARGE,US,1990-01-09,AFETR,,2682418,146633997,0 LEASAT 5,1 20410U 90002B   20011.66670986 -.00000055 +00000-0 +00000-0 0  9991,2 20410 011.7422 004.6627 0008443 354.0132 176.5711 00.99599438095039
2,GENERATED VIA SPACE-TRACK.ORG API,2020-01-13T05:01:04,18 SPCS,LEASAT 5,1990-002B,EARTH,TEME,UTC,SGP4,2020-01-12T17:49:48.308736,0.99599785,0.0008462,11.742,4.6553,354.0734,202.4079,0,U,20410,999,9504,0.0,-7.8e-07,0,42354.176,1445.786,36011.881,35940.201,PAYLOAD,LARGE,US,1990-01-09,AFETR,,2682982,146665564,0 LEASAT 5,1 20410U 90002B   20012.74292024 -.00000078 +00000-0 +00000-0 0  9999,2 20410 011.7420 004.6553 0008462 354.0734 202.4079 00.99599785095046
2,GENERATED VIA SPACE-TRACK.ORG API,2020-01-13T14:20:16,18 SPCS,LEASAT 5,1990-002B,EARTH,TEME,UTC,SGP4,2020-01-13T05:53:02.827104,0.99599937,0.0008462,11.7419,4.6519,354.0739,22.5003,0,U,20410,999,9504,0.0,-8.8e-07,0,42354.133,1445.784,36011.838,35940.158,PAYLOAD,LARGE,US,1990-01-09,AFETR,,2683199,146684571,0 LEASAT 5,1 20410U 90002B   20013.24517161 -.00000088  00000-0  00000+0 0  9997,2 20410  11.7419   4.6519 0008462 354.0739  22.5003  0.99599937 95048
2,GENERATED VIA SPACE-TRACK.ORG API,2020-01-14T04:47:54,18 SPCS,LEASAT 5,1990-002B,EARTH,TEME,UTC,SGP4,2020-01-13T17:56:17.800800,0.99600075,0.0008479,11.7418,4.6484,354.0808,202.5882,0,U,20410,999,9505,0.0,-9.9e-07,0,42354.094,1445.782,36011.871,35940.047,PAYLOAD,LARGE,US,1990-01-09,AFETR,,2683577,146715827,0 LEASAT 5,1 20410U 90002B   20013.74742825 -.00000099 +00000-0 +00000-0 0  9992,2 20410 011.7418 004.6484 0008479 354.0808 202.5882 00.99600075095055
2,GENERATED VIA SPACE-TRACK.ORG API,2020-01-15T04:33:10,18 SPCS,LEASAT 5,1990-002B,EARTH,TEME,UTC,SGP4,2020-01-14T18:02:45.890592,0.99600343,0.0008504,11.7416,4.6415,354.0926,202.7598,0,U,20410,999,9506,0.0,-1.21e-06,0,42354.018,1445.778,36011.901,35939.865,PAYLOAD,LARGE,US,1990-01-09,AFETR,,2684153,146786823,0 LEASAT 5,1 20410U 90002B   20014.75192003 -.00000121 +00000-0 +00000-0 0  9997,2 20410 011.7416 004.6415 0008504 354.0926 202.7598 00.99600343095062
2,GENERATED VIA SPACE-TRACK.ORG API,2020-01-15T14:30:15,18 SPCS,LEASAT 5,1990-002B,EARTH,TEME,UTC,SGP4,2020-01-15T06:06:01.370592,0.99600457,0.0008506,11.7415,4.638,354.0816,22.8684,0,U,20410,999,9506,0.0,-1.31e-06,0,42353.985,1445.776,36011.877,35939.824,PAYLOAD,LARGE,US,1990-01-09,AFETR,,2684360,146805302,0 LEASAT 5,1 20410U 90002B   20015.25418253 -.00000131  00000-0  00000+0 0  9991,2 20410  11.7415   4.6380 0008506 354.0816  22.8684  0.99600457 95065
2,GENERATED VIA SPACE-TRACK.ORG API,2020-01-16T21:27:20,18 SPCS,LEASAT 5,1990-002B,EARTH,TEME,UTC,SGP4,2020-01-16T04:29:21.156288,0.9960065,0.0008534,11.7413,4.6316,354.1102,357.3415,0,U,20410,999,9507,0.0,-1.51e-06,0,42353.931,1445.773,36011.94,35939.651,PAYLOAD,LARGE,US,1990-01-09,AFETR,,2685134,146846037,0 LEASAT 5,1 20410U 90002B   20016.18705042 -.00000151 +00000-0 +00000-0 0  9992,2 20410 011.7413 004.6316 0008534 354.1102 357.3415 00.99600650095076
